ONEWEB-0045             
1 45151U 20008W   24251.78556092  .00000674  00000+0  18664-2 0  9995
2 45151  87.8984 149.9648 0001718  75.6173 284.5145 13.11416717225559
ONEWEB-0047             
1 45152U 20008X   24251.79022896 -.00000555  00000+0 -16253-2 0  9999
2 45152  87.8989 165.0944 0001880  73.5108 286.6225 13.10372258223413
ONEWEB-0048             
1 45153U 20008Y   24251.78525072 -.00000470  00000+0 -13822-2 0  9998
2 45153  87.8989 165.1126 0001889  71.0934 289.0398 13.10370997223029
ONEWEB-0049             
1 45154U 20008Z   24251.78691732 -.00000508  00000+0 -14927-2 0  9995
2 45154  87.8994 165.0949 0002215  61.8918 298.2433 13.10372030223247
ONEWEB-0051             
1 45155U 20008AA  24251.78384854  .00000602  00000+0  16620-2 0  9995
2 45155  87.8985 150.0069 0001937  78.8953 281.2392 13.11419101226232
ONEWEB-0052             
1 45156U 20008AB  24251.78359521 -.00000433  00000+0 -12760-2 0  9994
2 45156  87.8985 165.0608 0002080  60.2101 299.9233 13.10371120223153
ONEWEB-0053             
1 45157U 20008AC  24251.84170598  .00000452  00000+0  12572-2 0  9997
2 45157  87.8988 165.1035 0001506  71.0303 289.0987 13.10371271223139
ONEWEB-0054             
1 45158U 20008AD  24251.80019631 -.00000346  00000+0 -10261-2 0  9991
2 45158  87.8991 165.0920 0001968  74.5042 285.6302 13.10374772223240
